STARLINK-2121           
1 47399U 21005BC  26169.60271625  .00000100  00000+0  14993-4 0  9993
2 47399  53.1596 287.2355 0001037  71.7372 288.3743 15.31703852298855
STARLINK-2122           
1 47400U 21005BD  26169.53234166 -.00000987  00000+0 -20047-4 0  9999
2 47400  53.1600 264.3963 0000734  44.2598 315.8462 15.31700990299173
STARLINK-2123           
1 47401U 21005BE  26168.60534269  .00000942  00000+0  42121-4 0  9990
2 47401  53.1620 292.1425 0001171  86.9449 273.1686 15.31705937298698
STARLINK-2128           
1 47404U 21005BH  26170.00002315  .00254561  00000+0  86909-3 0  9991
2 47404  53.0371 233.1016 0006665 356.0468  94.0928 15.88535450  6014
STARLINK-2130           
1 47405U 21005BJ  26169.66046030 -.00000040  00000+0  10473-4 0  9990
2 47405  53.1602 312.6978 0000753 123.2153 236.8920 15.31698776298492
STARLINK-2134           
1 47407U 21005BL  26169.80840706  .00005695  00000+0  19504-3 0  9993
2 47407  53.1580 288.3805 0001004  87.0977 273.0140 15.31714555298848
STARLINK-2135           
1 47408U 21005BM  26169.61676278  .00000587  00000+0  30661-4 0  9997
2 47408  53.1590 287.6652 0001120 100.6900 259.4227 15.31707122298845
STARLINK-1954           
1 47555U 21009H   26169.94004079  .00038226  00000+0  90256-3 0  9990
2 47555  53.0509 254.3706 0002133 356.1577   3.9410 15.41515116296521
STARLINK-1958           
1 47559U 21009M   26170.02586806  .01279047  12807-2  77661-3 0  9993
2 47559  53.0233 171.1953 0001439 221.6074 138.4854 16.17908898297686
STARLINK-1962           
1 47563U 21009R   26170.00002315  .00327098  53137-4  83377-3 0  9997
2 47563  53.0336 212.2804 0004079  17.9511  55.4661 15.94893321  5816
STARLINK-1964           
1 47565U 21009T   26169.93905941  .00886795  41547-3  12740-2 0  9996
2 47565  53.0298 180.5741 0007151   1.6199 358.4854 16.04844164297544
STARLINK-1967           
1 47568U 21009W   26170.00002315  .00231415  00000+0  82434-3 0  9998
2 47568  53.0363 221.5632 0003661  24.1033 225.5528 15.87758733  6023
STARLINK-1991           
1 47587U 21009AR  26169.90647933  .00581078  17624-3  75025-3 0  9992
2 47587  53.0293 184.1805 0009660  12.5869 347.5403 16.06490951297492
STARLINK-1994           
1 47589U 21009AT  26170.00002315  .00138569  00000+0  66395-3 0  9995
2 47589  53.0381 222.8858 0003741  24.6464 268.8922 15.81833664  6009
STARLINK-1995           
1 47590U 21009AU  26169.46768763  .00124723  00000+0  62157-3 0  9990
2 47590  53.0365 243.0972 0003819  16.5144 343.6001 15.81029578296637
STARLINK-1997           
1 47592U 21009AW  26170.00002315  .00419897  86713-4  79216-3 0  9991
2 47592  53.0248 212.8833 0012020   9.3826  14.3928 16.00140391  5974
STARLINK-2001           
1 47596U 21009BA  26169.93321827  .00059410  00000+0  51355-3 0  9992
2 47596  53.0385 247.9914 0001269  23.7940 336.3134 15.68651105296600
STARLINK-2021           
1 47604U 21009BJ  26170.00002315  .00453334  10001-3  84888-3 0  9996
2 47604  53.0270 188.7430 0009057  24.7872 234.0192 16.00326926  5980
STARLINK-1609           
1 47621U 21012B   26169.77238378  .00072116  00000+0  14052-2 0  9995
2 47621  53.1589 308.6203 0002520 267.7547  92.3173 15.46911284295666
STARLINK-1655           
1 47623U 21012D   26169.93692779  .00472117  11049-3  79970-3 0  9999
2 47623  53.0251 179.5707 0001610  50.9947 309.1226 16.02127920297458
STARLINK-1704           
1 47625U 21012F   26170.00002315  .00016553  00000+0  16108-3 0  9995
2 47625  53.0468 295.4347 0003016 198.6747 155.3278 15.66451151  5896
STARLINK-1972           
1 47627U 21012H   26169.49977705  .00049627  00000+0  49922-3 0  9990
2 47627  53.0436 196.5809 0004997 352.7708   7.3233 15.64952195297157
STARLINK-1973           
1 47628U 21012J   26169.83824242  .00003423  00000+0  12201-3 0  9990
2 47628  53.1587 314.4381 0001300  92.9139 267.2012 15.31701684295584
STARLINK-1983           
1 47630U 21012L   26169.63908548  .00003693  00000+0  13065-3 0  9991
2 47630  53.1591 299.9398 0001954  39.2038 320.9105 15.31713746295744
STARLINK-1992           
1 47632U 21012N   26169.84375772  .00001845  00000+0  71188-4 0  9991
2 47632  53.1595 222.1151 0001234  90.0906 270.0237 15.31704743296856
STARLINK-2015           
1 47638U 21012U   26169.83766999  .00030432  00000+0  85843-3 0  9997
2 47638  53.1552 221.1979 0005785 356.7011   3.3953 15.36157164296863
STARLINK-2019           
1 47641U 21012X   26170.00002315  .00109970  00000+0  51758-3 0  9999
2 47641  53.0365 162.2064 0007505  28.8416 348.1650 15.82287590  5945
STARLINK-2031           
1 47648U 21012AE  26169.66237177 -.00001873  00000+0 -48615-4 0  9996
2 47648  53.1601 299.7910 0000928  84.0331 276.0776 15.31701252295774
STARLINK-2032           
1 47649U 21012AF  26170.00002315  .00252247  34914-4  75284-3 0  9999
2 47649  53.0293 228.0791 0010565  20.2328 350.8729 15.91876518  6020
STARLINK-2033           
1 47650U 21012AG  26169.63195499  .00048345  00000+0  11251-2 0  9993
2 47650  53.1515 296.1012 0001356 224.1097 135.9801 15.41847406295806
