OBJECT_NAME,OBJECT_ID,EPOCH,MEAN_MOTION,ECCENTRICITY,INCLINATION,RA_OF_ASC_NODE,ARG_OF_PERICENTER,MEAN_ANOMALY,EPHEMERIS_TYPE,CLASSIFICATION_TYPE,NORAD_CAT_ID,ELEMENT_SET_NO,REV_AT_EPOCH,BSTAR,MEAN_MOTION_DOT,MEAN_MOTION_DDOT
STARLINK-2121,2021-005BC,2026-06-18T14:27:54.684000,15.31703852,.0001037,53.1596,287.2355,71.7372,288.3743,0,U,47399,999,29885,.14993E-4,.1E-5,0
STARLINK-2122,2021-005BD,2026-06-18T12:46:34.319424,15.31700990,.0000734,53.1600,264.3963,44.2598,315.8462,0,U,47400,999,29917,-.20047E-4,-.987E-5,0
STARLINK-2123,2021-005BE,2026-06-17T14:31:41.608416,15.31705937,.0001171,53.1620,292.1425,86.9449,273.1686,0,U,47401,999,29869,.42121E-4,.942E-5,0
STARLINK-2128,2021-005BH,2026-06-19T00:00:02.000160,15.88535450,.00066655,53.0371,233.1016,356.0468,94.0928,0,U,47404,999,601,.86908873E-3,.254561E-2,0
STARLINK-2130,2021-005BJ,2026-06-18T15:51:03.769920,15.31698776,.00007537,53.1602,312.6978,123.2153,236.8920,0,U,47405,999,29849,.10472607E-4,-.4E-6,0
STARLINK-2134,2021-005BL,2026-06-18T19:24:06.369984,15.31714555,.00010045,53.1580,288.3805,87.0977,273.0140,0,U,47407,999,29884,.19503776E-3,.5695E-4,0
STARLINK-2135,2021-005BM,2026-06-18T14:48:08.304192,15.31707122,.000112,53.1590,287.6652,100.6900,259.4227,0,U,47408,999,29884,.30661E-4,.587E-5,0
STARLINK-1954,2021-009H,2026-06-18T22:33:39.524256,15.41515116,.0002133,53.0509,254.3706,356.1577,3.9410,0,U,47555,999,29652,.90255583E-3,.38226E-3,0
STARLINK-1958,2021-009M,2026-06-19T00:37:15.000384,16.17908898,.0001439,53.0233,171.1953,221.6074,138.4854,0,U,47559,999,29768,.77661E-3,.1279047E-1,.12807E-2
STARLINK-1962,2021-009R,2026-06-19T00:00:02.000160,15.94893321,.00040792,53.0336,212.2804,17.9511,55.4661,0,U,47563,999,581,.83377318E-3,.327098E-2,.53137013E-4
STARLINK-1964,2021-009T,2026-06-18T22:32:14.733024,16.04844164,.00071518,53.0298,180.5741,1.6199,358.4854,0,U,47565,999,29754,.1273978E-2,.886795E-2,.41546558E-3
STARLINK-1967,2021-009W,2026-06-19T00:00:02.000160,15.87758733,.00036616,53.0363,221.5632,24.1033,225.5528,0,U,47568,999,602,.82434279E-3,.231415E-2,0
STARLINK-1991,2021-009AR,2026-06-18T21:45:19.814112,16.06490951,.00096604,53.0293,184.1805,12.5869,347.5403,0,U,47587,999,29749,.75025365E-3,.581078E-2,.17624342E-3
STARLINK-1994,2021-009AT,2026-06-19T00:00:02.000160,15.81833664,.00037419,53.0381,222.8858,24.6464,268.8922,0,U,47589,999,600,.66394616E-3,.138569E-2,0
STARLINK-1995,2021-009AU,2026-06-18T11:13:28.211232,15.81029578,.0003819,53.0365,243.0972,16.5144,343.6001,0,U,47590,999,29663,.62157E-3,.124723E-2,0
STARLINK-1997,2021-009AW,2026-06-19T00:00:02.000160,16.00140391,.00120207,53.0248,212.8833,9.3826,14.3928,0,U,47592,999,597,.79216073E-3,.419897E-2,.86712754E-4
STARLINK-2001,2021-009BA,2026-06-18T22:23:50.058528,15.68651105,.0001269,53.0385,247.9914,23.7940,336.3134,0,U,47596,999,29660,.51354921E-3,.5941E-3,0
STARLINK-2021,2021-009BJ,2026-06-19T00:00:02.000160,16.00326926,.00090576,53.0270,188.7430,24.7872,234.0192,0,U,47604,999,598,.84887861E-3,.453334E-2,.10001296E-3
STARLINK-1609,2021-012B,2026-06-18T18:32:13.958592,15.46911284,.00025207,53.1589,308.6203,267.7547,92.3173,0,U,47621,999,29566,.1405178E-2,.72116E-3,0
STARLINK-1655,2021-012D,2026-06-18T22:29:10.561056,16.02127920,.00016107,53.0251,179.5707,50.9947,309.1226,0,U,47623,999,29745,.79969887E-3,.472117E-2,.11049469E-3
STARLINK-1704,2021-012F,2026-06-19T00:00:02.000160,15.66451151,.00030168,53.0468,295.4347,198.6747,155.3278,0,U,47625,999,589,.16107645E-3,.16553E-3,0
STARLINK-1972,2021-012H,2026-06-18T11:59:40.737120,15.64952195,.0004997,53.0436,196.5809,352.7708,7.3233,0,U,47627,999,29715,.49922E-3,.49627E-3,0
STARLINK-1973,2021-012J,2026-06-18T20:07:04.145088,15.31701684,.00013004,53.1587,314.4381,92.9139,267.2012,0,U,47628,999,29558,.12201438E-3,.3423E-4,0
STARLINK-1983,2021-012L,2026-06-18T15:20:16.985472,15.31713746,.00019541,53.1591,299.9398,39.2038,320.9105,0,U,47630,999,29574,.13065329E-3,.3693E-4,0
STARLINK-1992,2021-012N,2026-06-18T20:15:00.667008,15.31704743,.00012347,53.1595,222.1151,90.0906,270.0237,0,U,47632,999,29685,.71187946E-4,.1845E-4,0
STARLINK-2015,2021-012U,2026-06-18T20:06:14.687136,15.36157164,.00057859,53.1552,221.1979,356.7011,3.3953,0,U,47638,999,29686,.85843321E-3,.30432E-3,0
STARLINK-2019,2021-012X,2026-06-19T00:00:02.000160,15.82287590,.00075053,53.0365,162.2064,28.8416,348.1650,0,U,47641,999,594,.51757705E-3,.10997E-2,0
STARLINK-2031,2021-012AE,2026-06-18T15:53:48.920928,15.31701252,.00009287,53.1601,299.7910,84.0331,276.0776,0,U,47648,999,29577,-.48615433E-4,-.1873E-4,0
STARLINK-2032,2021-012AF,2026-06-19T00:00:02.000160,15.91876518,.00105654,53.0293,228.0791,20.2328,350.8729,0,U,47649,999,602,.75283888E-3,.252247E-2,.34913993E-4
STARLINK-2033,2021-012AG,2026-06-18T15:10:00.911136,15.41847406,.00013565,53.1515,296.1012,224.1097,135.9801,0,U,47650,999,29580,.11250508E-2,.48345E-3,0
